NESS                    
1 58020U 23155E   26068.76452457  .00019469  00000+0  74047-3 0  9996
2 58020  97.5941 152.6141 0006891 179.8776 180.2465 15.26794015133307
STARLINK-31195          
1 58796U 24012K   26067.59543388  .00000765  00000+0  37318-4 0  9993
2 58796  43.0011 171.8589 0001213 278.6166  81.4548 15.27590860121061
